CubeBel-2 (EU11S)
1 57175U 23091K   25357.15973550  .00014273  00000-0  58562-3 0  9993
2 57175  97.5321  54.1606 0011292  22.5815 337.5916 15.24288043137444
RS-38S
1 57189U 23091Z   25357.30438521  .00016340  00000-0  57002-3 0  9994
2 57189  97.5346  58.8476 0007801 346.1582  13.9443 15.29668199137741
SONATE-2
1 59112U 24043Q   25356.94869450  .00028736  00000-0  59679-3 0  9992
2 59112  97.5337 133.5851 0009393 126.2637 233.9480 15.45599374100553
MO-122
1 60209U 24125G   25357.07609296  .00035208  00000-0  69720-3 0  9997
2 60209  97.2508 207.4594 0014996 140.7464 219.4876 15.46870959 82209
GRBBeta
1 60237U 24128C   25357.05100609  .00005440  00000-0  38472-3 0  9998
2 60237  61.9905 113.4809 0055872  98.5843 262.1585 15.04855209 79745
Curium One
1 60242U 24128H   25356.86799776  .00010483  00000-0  64778-3 0  9992
2 60242  61.9800 108.7564 0055603  95.2860 265.4582 15.09071834 79815
ROBUSTA-3A
1 60243U 24128J   25356.87596858  .00009803  00000-0  61833-3 0  9993
2 60243  61.9873 110.3075 0055830  92.7610 267.9875 15.08373920 79798
CatSat
1 60246U 24125J   25357.06517322  .00039765  00000-0  93510-3 0  9991
2 60246  97.2295 204.3435 0034377 107.6845 252.8160 15.41247045 80117
HYPERVIEW-1G (RS66S)
1 61772U 24199AP  25357.27765197  .00043870  00000-0  81740-3 0  9999
2 61772  97.3194 226.8503 0008605 191.0771 169.0292 15.48669619107247
AO-123
1 61781U 24199AY  25357.31881708  .00011699  00000-0  37806-3 0  9999
2 61781  97.3236 222.6541 0013342 213.3598 146.6804 15.32162117106961
ZIMSAT 2
1 61783U 24199BA  25355.37070692  .00235620  00000-0  14200-2 0  9991
2 61783  97.3058 228.7877 0005306 149.2329 210.9249 15.77002175110367
HADES-R (SO-124)
1 62690U 25009CK  25357.21825658  .00196287  00000-0  21712-2 0  9996
2 62690  97.3857  80.2682 0001213 272.4682  87.6437 15.62371008 52418
HYDRA-T
1 62692U 25009CM  25357.18243663  .00231024  00000-0  23181-2 0  9995
2 62692  97.3841  80.4676 0001911 282.8092  77.2954 15.64758877 52428
JINJUSat 1B
1 63210U 25052A   25357.20575510  .00017527  00000-0  66292-3 0  9993
2 63210  97.4198 249.2980 0004483  20.7209 339.4211 15.27009235 43188
NUSHSAT 1
1 63211U 25052B   25357.19369290  .00021155  00000-0  77282-3 0  9991
2 63211  97.4179 249.4225 0004644  23.8767 336.2687 15.28117617 43192
TEVEL2-4
1 63213U 25052D   25356.15102772  .00019851  00000-0  74192-3 0  9995
2 63213  97.4099 247.9164 0004563  43.1537 317.0059 15.27378399 43027
TEVEL2-5
1 63214U 25052E   25357.20521451  .00018670  00000-0  69885-3 0  9993
2 63214  97.4096 248.9497 0004464  41.5376 318.6202 15.27341002 43183
TEVEL2-6
1 63215U 25052F   25355.64039829  .00014669  00000-0  55179-3 0  9998
2 63215  97.4108 247.3833 0004638  43.5649 316.5955 15.27230257 42947
TEVEL2-1
1 63217U 25052H   25356.93013094  .00019387  00000-0  73414-3 0  9993
2 63217  97.4067 248.4665 0004983  49.6280 310.5393 15.26947294 43136
TEVEL2-3
1 63218U 25052J   25357.19130529  .00018537  00000-0  70145-3 0  9990
2 63218  97.4076 248.7327 0005029  49.9387 310.2292 15.26979834 43172
TEVEL2-2
1 63219U 25052K   25357.19301735  .00018565  00000-0  70297-3 0  9999
2 63219  97.4073 248.7284 0004891  49.3060 310.8603 15.26958709 43170
TEVEL2-9
1 63237U 25052AD  25357.16638854  .00017514  00000-0  69377-3 0  9991
2 63237  97.4138 248.3934 0009011  53.2916 306.9148 15.25442228 43132
TEVEL2-7
1 63238U 25052AE  25356.65652193  .00017832  00000-0  71002-3 0  9998
2 63238  97.4143 247.8602 0009072  54.4823 305.7259 15.25264688 43055
TEVEL2-8
1 63239U 25052AF  25357.18716645  .00017731  00000-0  70614-3 0  9997
2 63239  97.4139 248.3702 0009051  53.1800 307.0267 15.25258624 43132
HYDRA-W
1 63490U 25052BL  25357.21405705  .00074608  00000-0  16905-2 0  9990
2 63490  97.4053 251.1550 0010835  44.8331 315.3790 15.42770741 43330
HADES-ICM (SO-125)
1 63492U 25052BN  25357.15778696  .00067050  00000-0  16329-2 0  9990
2 63492  97.4062 250.7978 0011257  47.3875 312.8319 15.40625073 43302
Dragonfly
1 65729U 98067XH  25356.64556854  .00190650  00000-0  12172-2 0  9999
2 65729  51.6244  84.9151 0007786 337.8608  22.2054 15.75220895 14727
RSP-03
1 65732U 98067XL  25357.24200270  .00142295  00000-0  10843-2 0  9993
2 65732  51.6261  82.9119 0005983 318.7681  41.2865 15.71259199 14814
GHS-01
1 65733U 98067XM  25356.70258129  .00257457  00000-0  13662-2 0  9999
2 65733  51.6291  83.8081 0008822 342.1592  17.9098 15.79178849 14754
BOTAN
1 65942U 98067XP  25357.26137366  .00114200  00000-0  11277-2 0  9990
2 65942  51.6284  86.0542 0003228 325.6529  34.4257 15.65035738 11512
BEE-1000
1 66650U 25274A   25357.21692127  .00001643  00000-0  16874-3 0  9998
2 66650  97.7405 284.2127 0010954 212.7369 147.3172 14.91694831  3961
SPIRONE
1 66657U 25274H   25357.06904500  .00003053  00000-0  30254-3 0  9994
2 66657  97.7400 284.0976 0010907 236.6592 123.3584 14.92508675  3944
K-HERO
1 66660U 25274L   25356.72496857  .00002289  00000-0  22530-3 0  9999
2 66660  97.7405 283.7817 0012715 243.9254 116.0658 14.93010344  3895
SNUGLITE-III DURI
1 66661U 25274M   25357.25857343  .00002310  00000-0  22656-3 0  9994
2 66661  97.7404 284.3116 0013381 243.3372 116.6478 14.93147562  3977
SilverSat
1 66909U 98067XV  25356.51144008  .00071888  00000-0  11325-2 0  9990
2 66909  51.6306  93.7929 0003866 288.2093  71.8476 15.52898333  3134
CEVROSAT1
1 98526U 25248E   25313.13142326  .00000000  00000-0  19360-3 0    02
2 98526  45.4084 218.4764 0001315 254.8982 242.1062 15.17981583    02
